AMC-1 (GE-1)            
1 24315U 96054A   23172.62266637 -.00000028  00000+0  00000+0 0  9991
2 24315   6.4950  69.9131 0001757 201.1521  51.3176  0.99510524 35378
AMC-3 (GE-3)            
1 24936U 97050A   23172.36539531 -.00000258  00000+0  00000+0 0  9999
2 24936   5.4510  75.9224 0002622  11.1347 241.7728  1.00272391 41482
ASTRA 1G                
1 25071U 97076A   23171.33590867 -.00000209  00000+0  00000+0 0  9999
2 25071   6.9652  64.3892 0000939 237.4356  78.5256  0.99016496 93546
ASTRA 2A                
1 25462U 98050A   23171.77628443  .00000070  00000+0  00000+0 0  9991
2 25462   4.3291  81.5741 0002835 359.6049 164.1878  1.00273479 35387
NSS-11 (AAP-1)          
1 26554U 00059A   23172.61557380  .00000031  00000+0  00000+0 0  9998
2 26554   0.0256 314.7057 0002607 137.6427 214.7888  1.00271574 30344
AMC-6 (GE-6)            
1 26580U 00067A   23172.20136284  .00000110  00000+0  00000+0 0  9995
2 26580   0.0141 337.3462 0002450 129.5533  95.7309  1.00273485 82953
ASTRA 2C                
1 26853U 01025A   23172.42810264 -.00000257  00000+0  00000+0 0  9997
2 26853   5.4735  75.7371 0002639   4.6275 270.6296  1.00270717 34097
NSS-7                   
1 27414U 02019A   23171.43974998 -.00000159  00000+0  00000+0 0  9991
2 27414   6.7619  68.1777 0002511  22.1054 316.3995  1.00271613 77605
NSS-6                   
1 27603U 02057A   23172.54029968  .00000112  00000+0  00000+0 0  9992
2 27603   2.5483  87.3738 0002815 359.1401 207.9622  1.00275856 75090
AMC-11 (GE-11)          
1 28252U 04017A   23172.53679295 -.00000043  00000+0  00000+0 0  9998
2 28252   0.0188  27.8377 0000832  83.3095 240.4333  1.00271180 69928
AMC-15                  
1 28446U 04041A   23172.54026003 -.00000083  00000+0  00000+0 0  9998
2 28446   0.0259 322.2530 0002537 117.3887 279.2625  1.00271826 68364
NSS-10 (AMC-12)         
1 28526U 05003A   23171.43626338 -.00000249  00000+0  00000+0 0  9994
2 28526   3.7021  83.3494 0002788 352.1500 312.4695  1.00270519 67367
ASTRA 1KR               
1 29055U 06012A   23171.59084954  .00000124  00000+0  00000+0 0  9993
2 29055   0.0483 282.8312 0001195 223.9731 353.5970  1.00270011 34772
AMC-18                  
1 29644U 06054B   23172.42183041 -.00000210  00000+0  00000+0 0  9990
2 29644   0.0128  18.1428 0002014  70.9815 249.0838  1.00269483 60585
ASTRA 1L                
1 31306U 07016A   23171.59084954  .00000124  00000+0  00000+0 0  9990
2 31306   0.0633 312.6882 0002114  62.8106 124.9270  1.00270555 34050
ASTRA 4A (SIRIUS 4)     
1 32299U 07057A   23172.15949831  .00000038  00000+0  00000+0 0  9998
2 32299   0.0147  28.7759 0002421  56.2413 246.2883  1.00272068 40718
AMC-21                  
1 33275U 08038B   23172.52814459  .00000042  00000+0  00000+0 0  9996
2 33275   0.1257 100.1335 0003003 356.4252 238.1239  1.00271946 54549
ASTRA 1M                
1 33436U 08057A   23171.59093670  .00000125  00000+0  00000+0 0  9998
2 33436   0.0173  19.8475 0004928 100.0284  20.6074  1.00274959 34771
CIEL-2                  
1 33453U 08063A   23172.52562034  .00000064  00000+0  00000+0 0  9995
2 33453   0.0436 105.3363 0002806 345.8435 238.6450  1.00272941 53183
NSS-9                   
1 33749U 09008A   23172.39387556  .00000077  00000+0  00000+0 0  9996
2 33749   0.0150   5.9234 0001897  74.9198 153.3422  1.00273253 52583
SES-7 (PROTOSTAR 2)     
1 34941U 09027A   23172.03660848 -.00000340  00000+0  00000+0 0  9995
2 34941   0.0474  77.0313 0000799 126.0994 187.2560  1.00270028 51662
NSS-12                  
1 36032U 09058A   23171.59843288  .00000076  00000+0  00000+0 0  9998
2 36032   0.0124  17.7871 0002250  72.1467  91.0323  1.00271170 49965
SES-1                   
1 36516U 10016A   23172.54278218 -.00000109  00000+0  00000+0 0  9990
2 36516   0.0124 352.4019 0002366  94.2251 277.2456  1.00271873 48097
ASTRA 3B                
1 36581U 10021A   23172.00189693  .00000142  00000+0  00000+0 0  9993
2 36581   0.0476 343.7341 0004427 103.4482 205.9623  1.00268102 47925
SES-3                   
1 37748U 11035A   23172.27943926 -.00000096  00000+0  00000+0 0  9990
2 37748   0.0197 341.1322 0002681  97.5382 188.1325  1.00274356 43648
ASTRA 1N                
1 37775U 11041A   23171.66027442  .00000125  00000+0  00000+0 0  9997
2 37775   0.0483   9.1740 0004709  63.2672  93.0658  1.00273066 33577
SES-2                   
1 37809U 11049A   23172.23081130 -.00000190  00000+0  00000+0 0  9994
2 37809   0.0108   8.5250 0002320  80.3268 176.4043  1.00271373 43008
QUETZSAT 1              
1 37826U 11054A   23172.42484678 -.00000236  00000+0  00000+0 0  9995
2 37826   0.0315 306.7885 0001976 152.8990 245.6025  1.00270349 38934
SES-4                   
1 38087U 12007A   23171.36765089 -.00000164  00000+0  00000+0 0  9994
2 38087   0.0215  45.8096 0002528  52.0702 280.7851  1.00270248 41270
SES-5                   
1 38652U 12036A   23171.65792097  .00000039  00000+0  00000+0 0  9995
2 38652   0.0477 303.2575 0001759 141.5611  65.6079  1.00272070 33536
ASTRA 2F                
1 38778U 12051A   23171.87706562  .00000155  00000+0  00000+0 0  9996
2 38778   0.0735 248.5938 0001317 292.4331  71.7267  1.00269641 30175
SES-6                   
1 39172U 13026A   23171.58144591 -.00000256  00000+0  00000+0 0  9997
2 39172   0.0167 351.8696 0002405  81.1673   4.3066  1.00272129 36779
O3B FM5                 
1 39188U 13031A   23172.27536678 -.00000024  00000+0  00000+0 0  9991
2 39188   0.0498 345.3467 0003034 105.6251 269.0615  5.00115657182419
O3B FM4                 
1 39189U 13031B   23171.73144403 -.00000025  00000+0  00000+0 0  9994
2 39189   0.0455  18.6920 0002983  72.2388 269.1019  5.00116181182400
O3B FM2                 
1 39190U 13031C   23172.02312938 -.00000025  00000+0  00000+0 0  9999
2 39190   0.0455  24.9801 0002854  64.3397 270.7115  5.00115333182468
O3B PFM                 
1 39191U 13031D   23172.04907324 -.00000025  00000+0  00000+0 0  9991
2 39191   0.0481 355.6425 0002651  92.3102 272.0762  5.00116052182039
ASTRA 2E                
1 39285U 13056A   23172.12827465  .00000155  00000+0  00000+0 0  9991
2 39285   0.0538   3.9598 0002672  86.9091 252.8802  1.00268576 35481
SES-8                   
1 39460U 13071A   23171.81030992 -.00000265  00000+0  00000+0 0  9992
2 39460   0.0403 267.3261 0002708 188.2878 199.8435  1.00271045 33473
ASTRA 5B                
1 39617U 14011B   23171.44994826  .00000159  00000+0  00000+0 0  9996
2 39617   0.0406 333.7346 0003847 134.0704 354.0722  1.00274494 33716
O3B FM3                 
1 40079U 14038A   23171.90369630 -.00000025  00000+0  00000+0 0  9992
2 40079   0.0445   8.9326 0001793  17.8150 333.2602  5.00116781158401
O3B FM7                 
1 40080U 14038B   23171.65028868 -.00000025  00000+0  00000+0 0  9991
2 40080   0.0411  12.9257 0004353  86.6625 260.4596  5.00115870163227
O3B FM6                 
1 40081U 14038C   23171.67682274 -.00000025  00000+0  00000+0 0  9991
2 40081   0.0452   9.9498 0002729  76.7451 273.3348  5.00115354163166
O3B FM8                 
1 40082U 14038D   23171.73049781 -.00000025  00000+0  00000+0 0  9999
2 40082   0.0463  13.6517 0002580  75.7014 270.6750  5.00115978163295
O3B FM10                
1 40348U 14083A   23171.75685850 -.00000025  00000+0  00000+0 0  9999
2 40348   0.0504   1.0787 0002672  86.9742 271.9762  5.00115356155243
O3B FM11                
1 40349U 14083B   23171.77020016 -.00000025  00000+0  00000+0 0  9999
2 40349   0.0461 358.7253 0003385  89.1269 272.1851  5.00115608155261
O3B FM12                
1 40350U 14083C   23172.19724322 -.00000025  00000+0  00000+0 0  9999
2 40350   0.0463 359.8667 0002812  85.0654 275.0986  5.00115487155292
O3B FM9                 
1 40351U 14083D   23172.02380493 -.00000025  00000+0  00000+0 0  9999
2 40351   0.0453 357.5354 0002754  91.0258 271.4690  5.00116192155423
ASTRA 2G                
1 40364U 14089A   23171.30594713  .00000154  00000+0  00000+0 0  9993
2 40364   0.0381 345.8387 0004402  88.1597 332.6094  1.00274351 31001
SES-9                   
1 41380U 16013A   23171.39362602 -.00000340  00000+0  00000+0 0  9998
2 41380   0.0246 305.0758 0002098 137.7209  75.5488  1.00271405 26797
SES-10                  
1 42432U 17017A   23172.24209806 -.00000267  00000+0  00000+0 0  9991
2 42432   0.0197  44.7028 0002672  47.8506 196.8742  1.00270044 22791
SES-15                  
1 42709U 17026A   23172.39544344  .00000068  00000+0  00000+0 0  9991
2 42709   0.0195  20.9260 0000924 210.7910  50.8096  1.00250830 23195
SES-11 (ECHOSTAR 105)   
1 42967U 17063A   23172.54026003 -.00000084  00000+0  00000+0 0  9991
2 42967   0.0110  23.3511 0001758  54.5249 281.1199  1.00271978 20869
SES-14                  
1 43175U 18012B   23172.36417778 -.00000273  00000+0  00000+0 0  9991
2 43175   0.0134 333.3185 0000822 115.0231 264.5614  1.00271337 20117
O3B FM15                
1 43231U 18024A   23171.88983011 -.00000025  00000+0  00000+0 0  9996
2 43231   0.0536   2.1423 0002893  82.4469 275.4423  5.00114555 96385
O3B FM16                
1 43232U 18024B   23171.14371613 -.00000026  00000+0  00000+0 0  9996
2 43232   0.0579   2.3994 0002923  82.3315 275.3011  5.00116258 96262
O3B FM14                
1 43233U 18024C   23171.78333762 -.00000025  00000+0  00000+0 0  9999
2 43233   0.0592   3.0699 0003072  84.5973 272.3664  5.00115736 96304
O3B FM13                
1 43234U 18024D   23171.83699377 -.00000025  00000+0  00000+0 0  9993
2 43234   0.0552 341.5427 0003226  91.1798 287.3113  5.00115496 96421
SES-12                  
1 43488U 18049A   23171.81030991 -.00000265  00000+0  00000+0 0  9996
2 43488   0.0198  35.7034 0000804 253.3880   6.3686  1.00273006 18467
O3B FM20                
1 44112U 19020A   23171.61013036 -.00000025  00000+0  00000+0 0  9994
2 44112   0.0503   1.9189 0003234  79.0152 279.1011  5.00115751 76915
O3B FM19                
1 44113U 19020B   23170.23787423 -.00000026  00000+0  00000+0 0  9991
2 44113   0.0413 348.9694 0003996 110.4288 260.6457  5.00115451 76710
O3B FM17                
1 44114U 19020C   23171.91721989 -.00000025  00000+0  00000+0 0  9992
2 44114   0.0614  18.6889 0002916  64.4244 276.9184  5.00115982 76886
O3B FM18                
1 44115U 19020D   23172.26344325 -.00000025  00000+0  00000+0 0  9997
2 44115   0.0501   1.3740 0002814  86.1921 272.4647  5.00116073 77021
SES-17                  
1 49332U 21095A   23172.17339559 -.00000267  00000+0  00000+0 0  9999
2 49332   0.0132  52.4631 0000778  56.4046 155.5755  1.00274109  6897
SES-22                  
1 52933U 22071A   23172.52131546  .00000094  00000+0  00000+0 0  9997
2 52933   0.0161 329.3231 0000987 101.1035 251.7068  1.00270038  3597
SES-20                  
1 53960U 22123A   23172.47332737 -.00000095  00000+0  00000+0 0  9997
2 53960   0.0438 131.1209 0001972 320.9394 244.6332  1.00270066  2598
SES-21                  
1 53961U 22123B   23172.52389119  .00000075  00000+0  00000+0 0  9997
2 53961   0.0311  19.8586 0000984  60.5683 246.7007  1.00267749  2607
O3B MPOWER F1           
1 54755U 22174A   23172.30323788 -.00000024  00000+0  00000+0 0  9996
2 54755   0.0376   7.0886 0001948 170.0247 115.3296  5.00112304 10730
O3B MPOWER F2           
1 54756U 22174B   23172.25164407 -.00000024  00000+0  00000+0 0  9992
2 54756   0.0369  12.5782 0003554 148.0084 199.4255  5.00114516 10812
SES-18                  
1 55970U 23038A   23172.54106720 -.00000095  00000+0  00000+0 0  9995
2 55970   0.0365 264.2464 0000283 333.1284 123.7946  1.00272378  1156
SES-19                  
1 55971U 23038B   23172.52126196  .00000093  00000+0  00000+0 0  9990
2 55971   0.0299  73.3885 0001418   8.8206 239.9905  1.00272839  1124
O3B MPOWER F4           
1 56367U 23059A   23166.67363997  .00000003  00000+0  47088-1 0  9994
2 56367   4.4717 322.4161 1045331 293.2074  56.1326  6.06506031  3334
O3B MPOWER F3           
1 56368U 23059B   23166.59384640 -.00000006  00000+0  00000+0 0  9999
2 56368   4.6969 322.4892 1085606 293.3076  55.6444  6.11428210  3354
